KUIPER-00071            
1 64818U 25151C   25249.91668981 -.00522656  00000+0 -40316-1 0  9993
2 64818  51.8965  37.3226 0006684 334.9331  13.3781 15.03469786  4170
KUIPER-00072            
1 64819U 25151D   25249.65382772  .00023685  00000+0  66216-3 0  9991
2 64819  51.8790  34.9740 0006194 340.8203  19.2549 15.36545851  8042
KUIPER-00073            
1 64820U 25151E   25249.91668981  .00036462  00000+0  25655-2 0  9999
2 64820  51.8942  37.3664 0011564   1.4083  65.7414 15.04672870  5836
KUIPER-00074            
1 64821U 25151F   25249.91668981 -.00283370  00000+0 -87549-2 0  9994
2 64821  51.8788  33.6770 0006361 337.1617  47.8852 15.34122213  5171
KUIPER-00075            
1 64822U 25151G   25249.69918711  .00058025  00000+0  15604-2 0  9997
2 64822  51.8782  34.5427 0005435 327.3413  32.7237 15.37315405  8051
KUIPER-00076            
1 64823U 25151H   25249.91668981  .00065245  00000+0  21993-2 0  9994
2 64823  51.8816  33.8759 0007000 335.2872 325.0275 15.30099085  4958
KUIPER-00077            
1 64824U 25151J   25249.91668981  .00050343  00000+0  23979-2 0  9994
2 64824  51.8888  34.9994 0005428 329.7611 161.5591 15.18630114  5294
KUIPER-00078            
1 64825U 25151K   25249.91668981 -.00498961  00000+0 -21444-1 0  9993
2 64825  51.8817  34.3201 0007786  12.0698  81.2018 15.24370447  3745
